[{"OBJECT_NAME":"STARLINK-4507","OBJECT_ID":"2022-097R","EPOCH":"2026-03-09T09:05:03.393600","MEAN_MOTION":15.08832174,"ECCENTRICITY":8.815e-5,"INCLINATION":53.2164,"RA_OF_ASC_NODE":125.8641,"ARG_OF_PERICENTER":80.4307,"MEAN_ANOMALY":279.6785,"EPHEMERIS_TYPE":0,"CLASSIFICATION_TYPE":"U","NORAD_CAT_ID":53403,"ELEMENT_SET_NO":999,"REV_AT_EPOCH":19846,"BSTAR":-9.0383444e-5,"MEAN_MOTION_DOT":-1.726e-5,"MEAN_MOTION_DDOT":0},{"OBJECT_NAME":"RAISE-4","OBJECT_ID":"2025-297B","EPOCH":"2026-03-09T23:25:57.718272","MEAN_MOTION":15.08174958,"ECCENTRICITY":0.00127133,"INCLINATION":97.4953,"RA_OF_ASC_NODE":219.2703,"ARG_OF_PERICENTER":22.7159,"MEAN_ANOMALY":337.4629,"EPHEMERIS_TYPE":0,"CLASSIFICATION_TYPE":"U","NORAD_CAT_ID":67073,"ELEMENT_SET_NO":999,"REV_AT_EPOCH":1293,"BSTAR":0.00037087145,"MEAN_MOTION_DOT":5.682e-5,"MEAN_MOTION_DDOT":0}]
